{
  "1718915105": {
    "points": [
      {
        "id": 1,
        "name": "\u0422\u043E\u0447\u043A\u0430 1",
        "height": 16,
        "uploadId": 21
      },
      {
        "id": 2,
        "name": "\u0422\u043E\u0447\u043A\u0430 2",
        "height": 342,
        "uploadId": 21
      },
      {
        "id": 3,
        "name": "\u0422\u043E\u0447\u043A\u0430 3",
        "height": 800,
        "uploadId": 21
      },
      {
        "id": 4,
        "name": "\u0422\u043E\u0447\u043A\u0430 4",
        "height": 913,
        "uploadId": 21
      },
      {
        "id": 5,
        "name": "\u0422\u043E\u0447\u043A\u0430 5",
        "height": 895,
        "uploadId": 21
      },
      {
        "id": 6,
        "name": "\u0422\u043E\u0447\u043A\u0430 6",
        "height": 375,
        "uploadId": 21
      },
      {
        "id": 7,
        "name": "\u0422\u043E\u0447\u043A\u0430 7",
        "height": 74,
        "uploadId": 21
      }
    ],
    "tracks": [
      {
        "firstId": 1,
        "secondId": 2,
        "distance": 133,
        "surface": "ASPHALT",
        "maxSpeed": "FAST",
        "uploadId": 21
      },
      {
        "firstId": 2,
        "secondId": 3,
        "distance": 105,
        "surface": "GROUND",
        "maxSpeed": "NORMAL",
        "uploadId": 21
      },
      {
        "firstId": 3,
        "secondId": 4,
        "distance": 461,
        "surface": "SAND",
        "maxSpeed": "SLOW",
        "uploadId": 21
      },
      {
        "firstId": 4,
        "secondId": 5,
        "distance": 698,
        "surface": "SAND",
        "maxSpeed": "NORMAL",
        "uploadId": 21
      },
      {
        "firstId": 5,
        "secondId": 6,
        "distance": 323,
        "surface": "ASPHALT",
        "maxSpeed": "SLOW",
        "uploadId": 21
      },
      {
        "firstId": 6,
        "secondId": 7,
        "distance": 721,
        "surface": "GROUND",
        "maxSpeed": "FAST",
        "uploadId": 21
      }
    ]
  }
}