{
  "1678834571": {
    "points": [
      { "id": 1, "name": "Point 1", "height": 160 },
      { "id": 2, "name": "Point 2", "height": 170 },
      { "id": 3, "name": "Point 3", "height": 180 },
      { "id": 4, "name": "Point 4", "height": 175 },
      { "id": 5, "name": "Point 5", "height": 165 },
      { "id": 6, "name": "Point 6", "height": 192 },
      { "id": 7, "name": "Point 7", "height": 137 }
    ],
    "tracks": [
      { "firstId": 1, "secondId": 2, "distance": 100, "surface": "ASPHALT", "maxSpeed": "FAST" },
      { "firstId": 2, "secondId": 3, "distance": 200, "surface": "GROUND", "maxSpeed": "NORMAL" },
      { "firstId": 3, "secondId": 4, "distance": 150, "surface": "SAND", "maxSpeed": "SLOW" },
      { "firstId": 4, "secondId": 5, "distance": 120, "surface": "ASPHALT", "maxSpeed": "FAST" },
      { "firstId": 5, "secondId": 6, "distance": 83, "surface": "SAND", "maxSpeed": "NORMAL" },
      { "firstId": 6, "secondId": 7, "distance": 74, "surface": "GROUND", "maxSpeed": "SLOW" }
    ]
  },
  "1678920396": {
    "points": [
      { "id": 1, "name": "Point 1", "height": 160 },
      { "id": 2, "name": "Point 2", "height": 170 },
      { "id": 3, "name": "Point 3", "height": 180 },
      { "id": 4, "name": "Point 4", "height": 175 }
    ],
    "tracks": [
      { "firstId": 1, "secondId": 2, "distance": 100, "surface": "ASPHALT", "maxSpeed": "FAST" },
      { "firstId": 2, "secondId": 3, "distance": 200, "surface": "GROUND", "maxSpeed": "NORMAL" },
      { "firstId": 3, "secondId": 4, "distance": 150, "surface": "SAND", "maxSpeed": "SLOW" }
    ]
  },
  "1679007999": {
    "points": [
      { "id": 1, "name": "Point 1", "height": 210 },
      { "id": 2, "name": "Point 2", "height": 17 },
      { "id": 3, "name": "Point 3", "height": 180 },
      { "id": 4, "name": "Point 4", "height": 161 },
      { "id": 5, "name": "Point 5", "height": 96 },
      { "id": 6, "name": "Point 6", "height": 0 },
      { "id": 7, "name": "Point 7", "height": 92 }
    ],
    "tracks": [
      { "firstId": 1, "secondId": 2, "distance": 72, "surface": "ASPHALT", "maxSpeed": "FAST" },
      { "firstId": 2, "secondId": 3, "distance": 103, "surface": "GROUND", "maxSpeed": "NORMAL" },
      { "firstId": 3, "secondId": 4, "distance": 180, "surface": "SAND", "maxSpeed": "SLOW" },
      { "firstId": 4, "secondId": 5, "distance": 107, "surface": "ASPHALT", "maxSpeed": "FAST" },
      { "firstId": 5, "secondId": 6, "distance": 13, "surface": "SAND", "maxSpeed": "NORMAL" },
      { "firstId": 6, "secondId": 7, "distance": 94, "surface": "GROUND", "maxSpeed": "SLOW" }
    ]
  },
    "1985434851": {
      "points": [
        { "id": 1, "name": "Point 1", "height": 160 },
        { "id": 2, "name": "Point 2", "height": 170 },
        { "id": 3, "name": "Point 3", "height": 180 },
        { "id": 4, "name": "Point 4", "height": 175 },
        { "id": 5, "name": "Point 5", "height": 165 },
        { "id": 6, "name": "Point 6", "height": 192 },
        { "id": 7, "name": "Point 7", "height": 137 },
        { "id": 8, "name": "Point 8", "height": 150 },
        { "id": 9, "name": "Point 9", "height": 140 },
        { "id": 10, "name": "Point 10", "height": 155 },
        { "id": 11, "name": "Point 11", "height": 165 },
        { "id": 12, "name": "Point 12", "height": 180 },
        { "id": 13, "name": "Point 13", "height": 170 },
        { "id": 14, "name": "Point 14", "height": 185 },
        { "id": 15, "name": "Point 15", "height": 190 },
        { "id": 16, "name": "Point 16", "height": 175 },
        { "id": 17, "name": "Point 17", "height": 160 },
        { "id": 18, "name": "Point 18", "height": 145 },
        { "id": 19, "name": "Point 19", "height": 130 },
        { "id": 20, "name": "Point 20", "height": 125 },
        { "id": 21, "name": "Point 21", "height": 140 },
        { "id": 22, "name": "Point 22", "height": 155 },
        { "id": 23, "name": "Point 23", "height": 170 },
        { "id": 24, "name": "Point 24", "height": 185 },
        { "id": 25, "name": "Point 25", "height": 180 },
        { "id": 26, "name": "Point 26", "height": 175 },
        { "id": 27, "name": "Point 27", "height": 160 },
        { "id": 28, "name": "Point 28", "height": 145 },
        { "id": 29, "name": "Point 29", "height": 130 },
        { "id": 30, "name": "Point 30", "height": 125 },
        { "id": 31, "name": "Point 31", "height": 140 },
        { "id": 32, "name": "Point 32", "height": 155 },
        { "id": 33, "name": "Point 33", "height": 170 },
        { "id": 34, "name": "Point 34", "height": 185 },
        { "id": 35, "name": "Point 35", "height": 190 },
        { "id": 36, "name": "Point 36", "height": 175 },
        { "id": 37, "name": "Point 37", "height": 160 },
        { "id": 38, "name": "Point 38", "height": 145 },
        { "id": 39, "name": "Point 39", "height": 130 },
        { "id": 40, "name": "Point 40", "height": 125 },
        { "id": 41, "name": "Point 41", "height": 140 },
        { "id": 42, "name": "Point 42", "height": 155 },
        { "id": 43, "name": "Point 43", "height": 170 },
        { "id": 44, "name": "Point 44", "height": 185 },
        { "id": 45, "name": "Point 45", "height": 180 },
        { "id": 46, "name": "Point 46", "height": 175 },
        { "id": 47, "name": "Point 47", "height": 160 },
        { "id": 48, "name": "Point 48", "height": 145 },
        { "id": 49, "name": "Point 49", "height": 130 },
        { "id": 50, "name": "Point 50", "height": 125 },
        { "id": 51, "name": "Point 51", "height": 140 },
        { "id": 52, "name": "Point 52", "height": 155 },
        { "id": 53, "name": "Point 53", "height": 170 },
        { "id": 54, "name": "Point 54", "height": 185 },
        { "id": 55, "name": "Point 55", "height": 190 },
        { "id": 56, "name": "Point 56", "height": 175 },
        { "id": 57, "name": "Point 57", "height": 160 },
        { "id": 58, "name": "Point 58", "height": 145 },
        { "id": 59, "name": "Point 59", "height": 130 },
        { "id": 60, "name": "Point 60", "height": 125 },
        { "id": 61, "name": "Point 61", "height": 140 },
        { "id": 62, "name": "Point 62", "height": 155 },
        { "id": 63, "name": "Point 63", "height": 170 },
        { "id": 64, "name": "Point 64", "height": 185 },
        { "id": 65, "name": "Point 65", "height": 180 },
        { "id": 66, "name": "Point 66", "height": 175 },
        { "id": 67, "name": "Point 67", "height": 160 },
        { "id": 68, "name": "Point 68", "height": 145 },
        { "id": 69, "name": "Point 69", "height": 130 },
        { "id": 70, "name": "Point 70", "height": 125 },
        { "id": 71, "name": "Point 71", "height": 140 },
        { "id": 72, "name": "Point 72", "height": 155 },
        { "id": 73, "name": "Point 73", "height": 170 },
        { "id": 74, "name": "Point 74", "height": 185 },
        { "id": 75, "name": "Point 75", "height": 190 },
        { "id": 76, "name": "Point 76", "height": 175 },
        { "id": 77, "name": "Point 77", "height": 160 },
        { "id": 78, "name": "Point 78", "height": 145 },
        { "id": 79, "name": "Point 79", "height": 130 },
        { "id": 80, "name": "Point 80", "height": 125 },
        { "id": 81, "name": "Point 81", "height": 140 },
        { "id": 82, "name": "Point 82", "height": 155 },
        { "id": 83, "name": "Point 83", "height": 170 },
        { "id": 84, "name": "Point 84", "height": 185 },
        { "id": 85, "name": "Point 85", "height": 180 },
        { "id": 86, "name": "Point 86", "height": 175 },
        { "id": 87, "name": "Point 87", "height": 160 },
        { "id": 88, "name": "Point 88", "height": 145 },
        { "id": 89, "name": "Point 89", "height": 130 },
        { "id": 90, "name": "Point 90", "height": 125 },
        { "id": 91, "name": "Point 91", "height": 175 },
        { "id": 92, "name": "Point 92", "height": 160 },
        { "id": 93, "name": "Point 93", "height": 145 },
        { "id": 94, "name": "Point 94", "height": 130 },
        { "id": 95, "name": "Point 95", "height": 125 },
        { "id": 96, "name": "Point 96", "height": 140 },
        { "id": 97, "name": "Point 97", "height": 155 },
        { "id": 98, "name": "Point 98", "height": 170 },
        { "id": 99, "name": "Point 99", "height": 185 },
        { "id": 100, "name": "Point 100", "height": 180 },
        { "id": 101, "name": "Point 101", "height": 160 },
        { "id": 102, "name": "Point 102", "height": 170 }
      ],
          "tracks": [
            { "firstId": 1, "secondId": 2, "distance": 100, "surface": "ASPHALT", "maxSpeed": "FAST" },
            { "firstId": 2, "secondId": 3, "distance": 200, "surface": "GROUND", "maxSpeed": "NORMAL" },
            { "firstId": 3, "secondId": 4, "distance": 150, "surface": "SAND", "maxSpeed": "SLOW" },
            { "firstId": 4, "secondId": 5, "distance": 120, "surface": "ASPHALT", "maxSpeed": "FAST" },
            { "firstId": 5, "secondId": 6, "distance": 83, "surface": "SAND", "maxSpeed": "NORMAL" },
            { "firstId": 6, "secondId": 7, "distance": 74, "surface": "GROUND", "maxSpeed": "SLOW" },
            { "firstId": 7, "secondId": 8, "distance": 95, "surface": "ASPHALT", "maxSpeed": "FAST" },
            { "firstId": 8, "secondId": 9, "distance": 110, "surface": "SAND", "maxSpeed": "NORMAL" },
            { "firstId": 9, "secondId": 10, "distance": 130, "surface": "GROUND", "maxSpeed": "SLOW" },
            { "firstId": 10, "secondId": 11, "distance": 80, "surface": "ASPHALT", "maxSpeed": "FAST" },
            { "firstId": 11, "secondId": 12, "distance": 75, "surface": "SAND", "maxSpeed": "NORMAL" },
            { "firstId": 12, "secondId": 13, "distance": 90, "surface": "GROUND", "maxSpeed": "SLOW" },
            { "firstId": 13, "secondId": 14, "distance": 100, "surface": "ASPHALT", "maxSpeed": "FAST" },
            { "firstId": 14, "secondId": 15, "distance": 120, "surface": "SAND", "maxSpeed": "NORMAL" },
            { "firstId": 15, "secondId": 16, "distance": 110, "surface": "GROUND", "maxSpeed": "SLOW" },
            { "firstId": 16, "secondId": 17, "distance": 95, "surface": "ASPHALT", "maxSpeed": "FAST" },
            { "firstId": 17, "secondId": 18, "distance": 80, "surface": "SAND", "maxSpeed": "NORMAL" },
            { "firstId": 18, "secondId": 19, "distance": 70, "surface": "GROUND", "maxSpeed": "SLOW" },
            { "firstId": 19, "secondId": 20, "distance": 105, "surface": "ASPHALT", "maxSpeed": "FAST" },
            { "firstId": 20, "secondId": 21, "distance": 115, "surface": "SAND", "maxSpeed": "NORMAL" },
            { "firstId": 21, "secondId": 22, "distance": 125, "surface": "GROUND", "maxSpeed": "SLOW" },
            { "firstId": 22, "secondId": 23, "distance": 135, "surface": "ASPHALT", "maxSpeed": "FAST" },
            { "firstId": 23, "secondId": 24, "distance": 145, "surface": "SAND", "maxSpeed": "NORMAL" },
            { "firstId": 24, "secondId": 25, "distance": 155, "surface": "GROUND", "maxSpeed": "SLOW" },
            { "firstId": 25, "secondId": 26, "distance": 165, "surface": "ASPHALT", "maxSpeed": "FAST" },
            { "firstId": 26, "secondId": 27, "distance": 175, "surface": "SAND", "maxSpeed": "NORMAL" },
            { "firstId": 27, "secondId": 28, "distance": 185, "surface": "GROUND", "maxSpeed": "SLOW" },
            { "firstId": 28, "secondId": 29, "distance": 195, "surface": "ASPHALT", "maxSpeed": "FAST" },
            { "firstId": 29, "secondId": 30, "distance": 205, "surface": "SAND", "maxSpeed": "NORMAL" },
            { "firstId": 30, "secondId": 31, "distance": 215, "surface": "GROUND", "maxSpeed": "SLOW" },
            { "firstId": 31, "secondId": 32, "distance": 225, "surface": "ASPHALT", "maxSpeed": "FAST" },
            { "firstId": 32, "secondId": 33, "distance": 235, "surface": "SAND", "maxSpeed": "NORMAL" },
            { "firstId": 33, "secondId": 34, "distance": 245, "surface": "GROUND", "maxSpeed": "SLOW" },
            { "firstId": 34, "secondId": 35, "distance": 255, "surface": "ASPHALT", "maxSpeed": "FAST" },
            { "firstId": 35, "secondId": 36, "distance": 265, "surface": "SAND", "maxSpeed": "NORMAL" },
            { "firstId": 36, "secondId": 37, "distance": 275, "surface": "GROUND", "maxSpeed": "SLOW" },
            { "firstId": 37, "secondId": 38, "distance": 285, "surface": "ASPHALT", "maxSpeed": "FAST" },
            { "firstId": 38, "secondId": 39, "distance": 295, "surface": "SAND", "maxSpeed": "NORMAL" },
            { "firstId": 39, "secondId": 40, "distance": 305, "surface": "GROUND", "maxSpeed": "SLOW" },
            { "firstId": 40, "secondId": 41, "distance": 315, "surface": "ASPHALT", "maxSpeed": "FAST" },
            { "firstId": 41, "secondId": 42, "distance": 325, "surface": "SAND", "maxSpeed": "NORMAL" },
            { "firstId": 42, "secondId": 43, "distance": 335, "surface": "GROUND", "maxSpeed": "SLOW" },
            { "firstId": 43, "secondId": 44, "distance": 345, "surface": "ASPHALT", "maxSpeed": "FAST" },
            { "firstId": 44, "secondId": 45, "distance": 355, "surface": "SAND", "maxSpeed": "NORMAL" },
            { "firstId": 45, "secondId": 46, "distance": 365, "surface": "GROUND", "maxSpeed": "SLOW" },
            { "firstId": 46, "secondId": 47, "distance": 375, "surface": "ASPHALT", "maxSpeed": "FAST" },
            { "firstId": 47, "secondId": 48, "distance": 385, "surface": "SAND", "maxSpeed": "NORMAL" },
            { "firstId": 48, "secondId": 49, "distance": 395, "surface": "GROUND", "maxSpeed": "SLOW" },
            { "firstId": 49, "secondId": 50, "distance": 405, "surface": "ASPHALT", "maxSpeed": "FAST" },
            { "firstId": 50, "secondId": 51, "distance": 415, "surface": "SAND", "maxSpeed": "NORMAL" },
            { "firstId": 51, "secondId": 52, "distance": 425, "surface": "GROUND", "maxSpeed": "SLOW" },
            { "firstId": 52, "secondId": 53, "distance": 435, "surface": "ASPHALT", "maxSpeed": "FAST" },
            { "firstId": 53, "secondId": 54, "distance": 445, "surface": "SAND", "maxSpeed": "NORMAL" },
            { "firstId": 54, "secondId": 55, "distance": 275, "surface": "GROUND", "maxSpeed": "SLOW" },
            { "firstId": 55, "secondId": 56, "distance": 285, "surface": "ASPHALT", "maxSpeed": "FAST" },
            { "firstId": 56, "secondId": 57, "distance": 295, "surface": "SAND", "maxSpeed": "NORMAL" },
            { "firstId": 57, "secondId": 58, "distance": 305, "surface": "GROUND", "maxSpeed": "SLOW" },
            { "firstId": 58, "secondId": 59, "distance": 315, "surface": "ASPHALT", "maxSpeed": "FAST" },
            { "firstId": 59, "secondId": 60, "distance": 325, "surface": "SAND", "maxSpeed": "NORMAL" },
            { "firstId": 60, "secondId": 61, "distance": 335, "surface": "GROUND", "maxSpeed": "SLOW" },
            { "firstId": 61, "secondId": 62, "distance": 345, "surface": "ASPHALT", "maxSpeed": "FAST" },
            { "firstId": 62, "secondId": 63, "distance": 355, "surface": "SAND", "maxSpeed": "NORMAL" },
            { "firstId": 63, "secondId": 64, "distance": 365, "surface": "GROUND", "maxSpeed": "SLOW" },
            { "firstId": 64, "secondId": 65, "distance": 375, "surface": "ASPHALT", "maxSpeed": "FAST" },
            { "firstId": 65, "secondId": 66, "distance": 385, "surface": "SAND", "maxSpeed": "NORMAL" },
            { "firstId": 66, "secondId": 67, "distance": 395, "surface": "GROUND", "maxSpeed": "SLOW" },
            { "firstId": 67, "secondId": 68, "distance": 90, "surface": "GROUND", "maxSpeed": "SLOW" },
            { "firstId": 68, "secondId": 69, "distance": 100, "surface": "ASPHALT", "maxSpeed": "FAST" },
            { "firstId": 69, "secondId": 70, "distance": 120, "surface": "SAND", "maxSpeed": "NORMAL" },
            { "firstId": 70, "secondId": 71, "distance": 110, "surface": "GROUND", "maxSpeed": "SLOW" },
            { "firstId": 71, "secondId": 72, "distance": 95, "surface": "ASPHALT", "maxSpeed": "FAST" },
            { "firstId": 72, "secondId": 73, "distance": 80, "surface": "SAND", "maxSpeed": "NORMAL" },
            { "firstId": 73, "secondId": 74, "distance": 70, "surface": "GROUND", "maxSpeed": "SLOW" },
            { "firstId": 74, "secondId": 75, "distance": 105, "surface": "ASPHALT", "maxSpeed": "FAST" },
            { "firstId": 75, "secondId": 76, "distance": 115, "surface": "SAND", "maxSpeed": "NORMAL" },
            { "firstId": 76, "secondId": 77, "distance": 125, "surface": "GROUND", "maxSpeed": "SLOW" },
            { "firstId": 77, "secondId": 78, "distance": 135, "surface": "ASPHALT", "maxSpeed": "FAST" },
            { "firstId": 78, "secondId": 79, "distance": 145, "surface": "SAND", "maxSpeed": "NORMAL" },
            { "firstId": 79, "secondId": 80, "distance": 155, "surface": "GROUND", "maxSpeed": "SLOW" },
            { "firstId": 80, "secondId": 81, "distance": 165, "surface": "ASPHALT", "maxSpeed": "FAST" },
            { "firstId": 81, "secondId": 82, "distance": 175, "surface": "SAND", "maxSpeed": "NORMAL" },
            { "firstId": 82, "secondId": 83, "distance": 100, "surface": "ASPHALT", "maxSpeed": "FAST" },
            { "firstId": 83, "secondId": 84, "distance": 200, "surface": "GROUND", "maxSpeed": "NORMAL" },
            { "firstId": 84, "secondId": 85, "distance": 150, "surface": "SAND", "maxSpeed": "SLOW" },
            { "firstId": 85, "secondId": 86, "distance": 120, "surface": "ASPHALT", "maxSpeed": "FAST" },
            { "firstId": 86, "secondId": 87, "distance": 83, "surface": "SAND", "maxSpeed": "NORMAL" },
            { "firstId": 87, "secondId": 88, "distance": 74, "surface": "GROUND", "maxSpeed": "SLOW" },
            { "firstId": 88, "secondId": 89, "distance": 95, "surface": "ASPHALT", "maxSpeed": "FAST" },
            { "firstId": 89, "secondId": 90, "distance": 110, "surface": "SAND", "maxSpeed": "NORMAL" },
            { "firstId": 90, "secondId": 91, "distance": 130, "surface": "GROUND", "maxSpeed": "SLOW" },
            { "firstId": 91, "secondId": 92, "distance": 80, "surface": "ASPHALT", "maxSpeed": "FAST" },
            { "firstId": 92, "secondId": 93, "distance": 75, "surface": "SAND", "maxSpeed": "NORMAL" },
            { "firstId": 93, "secondId": 94, "distance": 90, "surface": "GROUND", "maxSpeed": "SLOW" },
            { "firstId": 94, "secondId": 95, "distance": 100, "surface": "ASPHALT", "maxSpeed": "FAST" },
            { "firstId": 95, "secondId": 96, "distance": 120, "surface": "SAND", "maxSpeed": "NORMAL" },
            { "firstId": 96, "secondId": 97, "distance": 110, "surface": "GROUND", "maxSpeed": "SLOW" },
            { "firstId": 97, "secondId": 98, "distance": 74, "surface": "GROUND", "maxSpeed": "SLOW" },
            { "firstId": 98, "secondId": 99, "distance": 95, "surface": "ASPHALT", "maxSpeed": "FAST" },
            { "firstId": 99, "secondId": 100, "distance": 110, "surface": "SAND", "maxSpeed": "NORMAL" },
            { "firstId": 100, "secondId": 101, "distance": 130, "surface": "GROUND", "maxSpeed": "SLOW" },
            { "firstId": 101, "secondId": 102, "distance": 80, "surface": "ASPHALT", "maxSpeed": "FAST" }
          ]
    }
}